NORAD_CAT_ID,OBJECT_NAME,OBJECT_TYPE,EPOCH,MEAN_MOTION,ECCENTRICITY,INCLINATION,RA_OF_ASC_NODE,ARG_OF_PERICENTER,MEAN_ANOMALY,BSTAR,MEAN_MOTION_DOT,MEAN_MOTION_DDOT,TLE_LINE0,TLE_LINE1,TLE_LINE2,SEMIMAJOR_AXIS,PERIOD,APOGEE,PERIGEE,DECAYED
53721.0,STARLINK-4707,PAYLOAD,2023-12-27 02:47:32,15.08842211,0.000159,53.2161,261.338,111.6246,248.4915,0.00044421,6.789e-05,0.0,0 STARLINK-4707,1 53721U 22107X   23361.11634366  .00006789  00000-0  44421-3 0  9993,2 53721  53.2161 261.3380 0001590 111.6246 248.4915 15.08842211 72641,6917.874,95.437,540.839,538.639,0.0
53721.0,STARLINK-4707,PAYLOAD,2023-12-27 21:52:09,15.08838944,0.0001465,53.2153,257.7713,94.7133,265.4027,5.1714e-06,-2.06e-06,0.0,0 STARLINK-4707,1 53721U 22107X   23361.91122362 -.00000206  00000-0  51714-5 0  9993,2 53721  53.2153 257.7713 0001465  94.7133 265.4027 15.08838944 73224,6917.884,95.438,540.762,538.735,0.0
53721.0,STARLINK-4707,PAYLOAD,2023-12-28 02:38:18,15.08846049,0.0001588,53.2164,256.8779,92.9547,267.1627,0.00010329,1.356e-05,0.0,0 STARLINK-4707,1 53721U 22107X   23362.10994078  .00001356  00000-0  10329-3 0  9997,2 53721  53.2164 256.8779 0001588  92.9547 267.1627 15.08846049 72794,6917.862,95.437,540.825,538.628,0.0
53721.0,STARLINK-4707,PAYLOAD,2023-12-28 23:18:19,15.08843017,0.0001735,53.2166,253.0113,93.0982,267.0209,3.5095e-05,2.71e-06,0.0,0 STARLINK-4707,1 53721U 22107X   23362.97106320  .00000271  00000-0  35095-4 0  9990,2 53721  53.2166 253.0113 0001735  93.0982 267.0209 15.08843017 72928,6917.871,95.437,540.936,538.536,0.0
53721.0,STARLINK-4707,PAYLOAD,2023-12-29 21:33:43,15.08842063,0.0001573,53.2152,248.8486,97.6069,262.5102,8.0954e-05,1.001e-05,0.0,0 STARLINK-4707,1 53721U 22107X   23363.89842360  .00001001  00000-0  80954-4 0  9999,2 53721  53.2152 248.8486 0001573  97.6069 262.5102 15.08842063 73523,6917.874,95.437,540.827,538.651,0.0
53721.0,STARLINK-4707,PAYLOAD,2023-12-29 23:09:06,15.08844009,0.000155,53.2164,248.5508,97.4753,262.6415,7.8956e-05,9.69e-06,0.0,0 STARLINK-4707,1 53721U 22107X   23363.96466168  .00000969  00000-0  78956-4 0  9996,2 53721  53.2164 248.5508 0001550  97.4753 262.6415 15.08844009 73532,6917.868,95.437,540.805,538.661,0.0
53721.0,STARLINK-4707,PAYLOAD,2023-12-30 19:49:07,15.08837954,0.0001528,53.2161,244.6857,94.4747,265.642,9.1175e-05,1.163e-05,0.0,0 STARLINK-4707,1 53721U 22107X   23364.82578566  .00001163  00000-0  91175-4 0  9993,2 53721  53.2161 244.6857 0001528  94.4747 265.6420 15.08837954 73202,6917.887,95.438,540.809,538.695,0.0
53721.0,STARLINK-4707,PAYLOAD,2023-12-30 21:24:31,15.08836878,0.000152,53.2162,244.3879,96.2013,263.9152,7.7113e-05,9.39e-06,0.0,0 STARLINK-4707,1 53721U 22107X   23364.89202579  .00000939  00000-0  77113-4 0  9994,2 53721  53.2162 244.3879 0001520  96.2013 263.9152 15.08836878 73670,6917.89,95.438,540.806,538.703,0.0
53721.0,STARLINK-4707,PAYLOAD,2023-12-31 21:15:18,15.08835664,0.000151,53.2163,239.9266,98.8774,261.2389,1.1239e-05,-1.09e-06,0.0,0 STARLINK-4707,1 53721U 22107X   23365.88562945 -.00000109  00000-0  11239-4 0  9997,2 53721  53.2163 239.9266 0001510  98.8774 261.2389 15.08835664 73824,6917.894,95.438,540.803,538.714,0.0
53721.0,STARLINK-4707,PAYLOAD,2024-01-01 14:44:32,15.08838559,0.0001514,53.2164,236.6549,101.786,258.3302,7.558e-05,9.15e-06,0.0,0 STARLINK-4707,1 53721U 22107X   24001.61426683  .00000915  00000-0  75580-4 0  9997,2 53721  53.2164 236.6549 0001514 101.7860 258.3302 15.08838559 73937,6917.885,95.438,540.797,538.702,0.0
53721.0,STARLINK-4707,PAYLOAD,2024-01-01 19:30:41,15.0884382,0.0001469,53.2159,235.7642,100.2394,259.8764,0.00010509,1.385e-05,0.0,0 STARLINK-4707,1 53721U 22107X   24001.81298253  .00001385  00000-0  10509-3 0  9990,2 53721  53.2159 235.7642 0001469 100.2394 259.8764 15.08843820 73508,6917.869,95.437,540.75,538.717,0.0
53721.0,STARLINK-4707,PAYLOAD,2024-01-01 21:06:04,15.08845539,0.0001462,53.2159,235.4668,100.114,260.0018,0.00011873,1.602e-05,0.0,0 STARLINK-4707,1 53721U 22107X   24001.87922110  .00001602  00000-0  11873-3 0  9999,2 53721  53.2159 235.4668 0001462 100.1140 260.0018 15.08845539 73970,6917.863,95.437,540.74,538.717,0.0
53721.0,STARLINK-4707,PAYLOAD,2024-01-02 00:16:50,15.08848401,0.0001454,53.2161,234.8719,96.7113,263.4044,0.00014001,1.941e-05,0.0,0 STARLINK-4707,1 53721U 22107X   24002.01169859  .00001941  00000-0  14001-3 0  9991,2 53721  53.2161 234.8719 0001454  96.7113 263.4044 15.08848401 73993,6917.855,95.437,540.726,538.714,0.0
53721.0,STARLINK-4707,PAYLOAD,2024-01-02 19:21:29,15.08839509,0.0001371,53.2151,231.3051,102.7782,257.3364,5.9258e-05,6.55e-06,0.0,0 STARLINK-4707,1 53721U 22107X   24002.80658650  .00000655  00000-0  59258-4 0  9995,2 53721  53.2151 231.3051 0001371 102.7782 257.3364 15.08839509 73650,6917.882,95.438,540.695,538.798,0.0
53721.0,STARLINK-4707,PAYLOAD,2024-01-02 22:32:15,15.08839365,0.0001304,53.2154,230.7112,88.1847,271.9295,4.4629e-05,4.22e-06,0.0,0 STARLINK-4707,1 53721U 22107X   24002.93906729  .00000422  00000-0  44629-4 0  9990,2 53721  53.2154 230.7112 0001304  88.1847 271.9295 15.08839365 74138,6917.882,95.438,540.649,538.845,0.0
53721.0,STARLINK-4707,PAYLOAD,2024-01-03 00:07:38,15.08839433,0.0001305,53.2154,230.4139,87.9661,272.1481,4.3338e-05,4.02e-06,0.0,0 STARLINK-4707,1 53721U 22107X   24003.00530724  .00000402  00000-0  43338-4 0  9991,2 53721  53.2154 230.4139 0001305  87.9661 272.1481 15.08839433 74143,6917.882,95.438,540.65,538.844,0.0
53721.0,STARLINK-4707,PAYLOAD,2024-01-03 22:23:02,15.08841861,0.0001292,53.2154,226.2505,87.8214,272.2926,1.0265e-05,-1.25e-06,0.0,0 STARLINK-4707,1 53721U 22107X   24003.93266675 -.00000125  00000-0  10265-4 0  9990,2 53721  53.2154 226.2505 0001292  87.8214 272.2926 15.08841861 74289,6917.875,95.437,540.633,538.846,0.0
53721.0,STARLINK-4707,PAYLOAD,2024-01-03 23:58:25,15.08843716,0.0001299,53.2155,225.9528,88.7891,271.325,2.09e-05,4.5e-07,0.0,0 STARLINK-4707,1 53721U 22107X   24003.99890502  .00000045  00000-0  20900-4 0  9995,2 53721  53.2155 225.9528 0001299  88.7891 271.3250 15.08843716 73830,6917.869,95.437,540.633,538.835,0.0
53721.0,STARLINK-4707,PAYLOAD,2024-01-04 20:38:26,15.08838011,0.0001325,53.216,222.0851,85.4103,274.704,3.5882e-05,2.83e-06,0.0,0 STARLINK-4707,1 53721U 22107X   24004.86002849  .00000283  00000-0  35882-4 0  9990,2 53721  53.2160 222.0851 0001325  85.4103 274.7040 15.08838011 73963,6917.886,95.438,540.668,538.835,0.0
53721.0,STARLINK-4707,PAYLOAD,2024-01-04 23:49:12,15.08838928,0.0001334,53.2161,221.4901,85.4191,274.6953,4.1888e-05,3.79e-06,0.0,0 STARLINK-4707,1 53721U 22107X   24004.99250783  .00000379  00000-0  41888-4 0  9995,2 53721  53.2161 221.4901 0001334  85.4191 274.6953 15.08838928 74443,6917.884,95.438,540.672,538.826,0.0
53721.0,STARLINK-4707,PAYLOAD,2024-01-05 20:29:13,15.08840408,0.0001306,53.2159,217.624,92.3753,267.7389,3.768e-05,3.12e-06,0.0,0 STARLINK-4707,1 53721U 22107X   24005.85362792  .00000312  00000-0  37680-4 0  9997,2 53721  53.2159 217.6240 0001306  92.3753 267.7389 15.08840408 74579,6917.879,95.438,540.648,538.841,0.0
53721.0,STARLINK-4707,PAYLOAD,2024-01-05 23:39:59,15.08840178,0.0001309,53.2159,217.0295,91.4847,268.6295,3.4666e-05,2.64e-06,0.0,0 STARLINK-4707,1 53721U 22107X   24005.98610818  .00000264  00000-0  34666-4 0  9993,2 53721  53.2159 217.0295 0001309  91.4847 268.6295 15.08840178 74132,6917.88,95.438,540.65,538.839,0.0
53721.0,STARLINK-4707,PAYLOAD,2024-01-06 20:20:00,15.08841032,0.0001339,53.2158,213.1639,88.3929,271.7217,4.9184e-05,4.95e-06,0.0,0 STARLINK-4707,1 53721U 22107X   24006.84722748  .00000495  00000-0  49184-4 0  9992,2 53721  53.2158 213.1639 0001339  88.3929 271.7217 15.08841032 74723,6917.877,95.437,540.669,538.816,0.0
53721.0,STARLINK-4707,PAYLOAD,2024-01-07 20:10:47,15.0883746,0.0001349,53.2157,208.7034,92.266,267.8486,2.1031e-05,4.7e-07,0.0,0 STARLINK-4707,1 53721U 22107X   24007.84083188  .00000047  00000-0  21031-4 0  9995,2 53721  53.2157 208.7034 0001349  92.2660 267.8486 15.08837460 74418,6917.888,95.438,540.686,538.82,0.0
53721.0,STARLINK-4707,PAYLOAD,2024-01-07 23:21:34,15.08836503,0.000135,53.2156,208.1092,90.8555,269.2592,9.7924e-06,-1.32e-06,0.0,0 STARLINK-4707,1 53721U 22107X   24007.97331291 -.00000132  00000-0  97924-5 0  9991,2 53721  53.2156 208.1092 0001350  90.8555 269.2592 15.08836503 74897,6917.891,95.438,540.69,538.822,0.0
53721.0,STARLINK-4707,PAYLOAD,2024-01-08 18:26:11,15.08841538,0.0001339,53.2156,204.5409,91.9853,268.1292,5.0328e-05,5.13e-06,0.0,0 STARLINK-4707,1 53721U 22107X   24008.76818849  .00000513  00000-0  50328-4 0  9996,2 53721  53.2156 204.5409 0001339  91.9853 268.1292 15.08841538 75013,6917.876,95.437,540.667,538.814,0.0
53721.0,STARLINK-4707,PAYLOAD,2024-01-09 18:16:59,15.08834821,0.0001299,53.2155,200.081,87.7696,272.3444,1.8161e-05,1e-08,0.0,0 STARLINK-4707,1 53721U 22107X   24009.76179546  .00000001  00000-0  18161-4 0  9992,2 53721  53.2155 200.0810 0001299  87.7696 272.3444 15.08834821 74700,6917.896,95.438,540.66,538.863,0.0
53721.0,STARLINK-4707,PAYLOAD,2024-01-10 18:07:45,15.08841495,0.0001316,53.2156,195.6184,96.4251,263.6891,5.561e-05,5.97e-06,0.0,0 STARLINK-4707,1 53721U 22107X   24010.75539053  .00000597  00000-0  55610-4 0  9996,2 53721  53.2156 195.6184 0001316  96.4251 263.6891 15.08841495 74858,6917.876,95.437,540.651,538.83,0.0
53721.0,STARLINK-4707,PAYLOAD,2024-01-11 11:37:00,15.08838261,0.0001328,53.2156,192.349,79.9649,280.1493,7.2131e-05,8.6e-06,0.0,0 STARLINK-4707,1 53721U 22107X   24011.48403299  .00000860  00000-0  72131-4 0  9999,2 53721  53.2156 192.3490 0001328  79.9649 280.1493 15.08838261 75425,6917.886,95.438,540.669,538.832,0.0
53721.0,STARLINK-4707,PAYLOAD,2024-01-11 19:33:55,15.08842028,0.0001328,53.2155,190.8623,82.4245,277.6898,9.8257e-05,1.276e-05,0.0,0 STARLINK-4707,1 53721U 22107X   24011.81523011  .00001276  00000-0  98257-4 0  9990,2 53721  53.2155 190.8623 0001328  82.4245 277.6898 15.08842028 75017,6917.874,95.437,540.658,538.82,0.0
